NAPA-1                  
1 46320U 20061BA  24211.90064752  .00006964  00000+0  28908-3 0  9991
2 46320  97.3515 274.4725 0001976  35.4273 324.7096 15.24149584215805
JILIN-1 GAOFEN 3B       
1 46454U 20065A   24211.92931049  .00017812  00000+0  65577-3 0  9994
2 46454  97.3379 256.1246 0011625  71.9314 288.3191 15.27843118213951
JILIN-1 GAOFEN 3E       
1 46457U 20065D   24211.89384625  .00017272  00000+0  64147-3 0  9997
2 46457  97.3389 256.1631 0010882  90.1813 270.0673 15.27569266213945
JILIN-1 GAOFEN 3F       
1 46458U 20065E   24211.93257270  .00017642  00000+0  65455-3 0  9992
2 46458  97.3321 254.9869 0011023  80.4020 279.8464 15.27596180213952
JILIN-1 GAOFEN 3G       
1 46459U 20065F   24211.90622668  .00017224  00000+0  63655-3 0  9993
2 46459  97.3438 257.3082 0011816  85.0090 275.2498 15.27720618213956
JILIN-1 GAOFEN 3H       
1 46460U 20065G   24211.89849778  .00016736  00000+0  62583-3 0  9992
2 46460  97.3334 255.1233 0011274  82.6873 277.5647 15.27344001213945
JILIN-1 GAOFEN 3J       
1 46462U 20065J   24211.94447154  .00018294  00000+0  67428-3 0  9996
2 46462  97.3374 256.2056 0010792  80.2359 280.0099 15.27808444213961
HAIYANG-2C              
1 46469U 20066A   24211.93167803  .00000030  00000+0  10103-3 0  9990
2 46469  65.9966 126.3990 0009054 237.9898 122.0291 13.83377021194439
HJ-2A                   
1 46478U 20067A   24211.93531481  .00001578  00000+0  23360-3 0  9995
2 46478  97.9400 293.2139 0001028   4.6944 355.4275 14.76526897206843
HJ-2B                   
1 46479U 20067B   24211.90303189  .00001612  00000+0  23855-3 0  9993
2 46479  97.9442 293.7668 0001859 100.9434 259.1985 14.76531296206845
GONETS-M 17             
1 46486U 20068A   24211.92013305  .00000041  00000+0  22496-3 0  9997
2 46486  82.4952  55.0306 0023721  93.6089 266.7704 12.42873164173785
GONETS-M 18             
1 46487U 20068B   24211.88561448  .00000058  00000+0  34732-3 0  9993
2 46487  82.4906  54.4321 0021049  90.1652 270.1840 12.42892795173763
GONETS-M 19             
1 46488U 20068C   24211.94167807  .00000057  00000+0  33874-3 0  9997
2 46488  82.4931  54.7063 0014634 104.3325 255.9381 12.42887592173877
MEZNSAT                 
1 46489U 20068D   24211.89419762  .00026468  00000+0  93841-3 0  9996
2 46489  97.8109 179.8355 0013532 136.0920 224.1397 15.28982270211297
YARILO 1                
1 46490U 20068E   24211.87519453  .00029571  00000+0  95082-3 0  9991
2 46490  97.8125 181.1973 0013082 133.7832 226.4493 15.32129999211372
YARILO 2                
1 46491U 20068F   24211.89537539  .00035618  00000+0  11338-2 0  9999
2 46491  97.8096 180.8991 0013461 134.6810 225.5530 15.32407149211359
LACUNASAT-3             
1 46492U 20068G   24211.91437823  .00036838  00000+0  10936-2 0  9996
2 46492  97.8089 181.9787 0012757 130.8373 229.3977 15.34627457211418
DEKART                  
1 46493U 20068H   24211.90619526  .00010070  00000+0  52772-3 0  9993
2 46493  97.8178 173.7403 0015349 160.8529 199.3282 15.15894627210865
NORBI                   
1 46494U 20068J   24211.87360544  .00009552  00000+0  47346-3 0  9997
2 46494  97.8175 174.7079 0014543 157.7871 202.3995 15.17882091210920
SALSAT                  
1 46495U 20068K   24211.85136871  .00008062  00000+0  44862-3 0  9995
2 46495  97.8177 172.2425 0014460 160.2121 199.9673 15.13845820210767
ICEYE-X6                
1 46497U 20068M   24211.42764118  .00005429  00000+0  43244-3 0  9998
2 46497  97.9554 168.4878 0003267 241.3015 118.7880 15.00790543210007
LEMUR-2-SLICERS         
1 46500U 20068Q   24211.87985222  .00112664  00000+0  15707-2 0  9995
2 46500  97.7711 185.3070 0009868 123.4318 236.7881 15.56471524211667
LEMUR-2-SUSURRUS        
1 46502U 20068S   24211.88063249  .00115248  00000+0  16040-2 0  9996
2 46502  97.7773 185.4463 0009589 125.2034 235.0119 15.56511484211665
NETSAT-4                
1 46504U 20068U   24211.84988569  .00010435  00000+0  54277-3 0  9992
2 46504  97.8069 170.1801 0008923 203.5323 156.5502 15.16217975210638
NETSAT-3                
1 46505U 20068V   24211.85110552  .00009721  00000+0  51495-3 0  9998
2 46505  97.8045 169.6339 0007926 211.7799 148.2956 15.15598544210625
NETSAT-1                
1 46506U 20068W   24211.88422580  .00008782  00000+0  49013-3 0  9998
2 46506  97.8068 169.0365 0006420 222.9285 137.1445 15.13781037210580
NETSAT-2                
1 46507U 20068X   24211.86897548  .00009857  00000+0  51371-3 0  9991
2 46507  97.8058 169.8174 0005514 224.8430 135.2356 15.16186165210586
FLOCK 4V-20             
1 46612U 20061BJ  24211.59967336  .00257990  00000+0  32186-2 0  9999
2 46612  97.3101 287.0042 0011435 241.0935 118.9175 15.58947282211190
TIANQI-6                
1 46810U 20076D   24211.59324775  .00005319  00000+0  44408-3 0  9996
2 46810  35.0016 283.4676 0013271 258.4461 101.4756 14.97908689205042
KSM1-C                  
1 46906U 20081B   24211.68485675  .00008406  00000+0  51465-3 0  9996
2 46906  36.8946 293.5035 0004197 246.8898 113.1403 15.09764368204576
KSM1-D                  
1 46907U 20081C   24211.67697192  .00007764  00000+0  48105-3 0  9998
2 46907  36.8986 294.7691 0005996 267.7138  92.2919 15.09353515204587
KSM1-A                  
1 46912U 20081H   24211.68900101  .00007908  00000+0  48633-3 0  9998
2 46912  36.8978 292.9345 0003729 338.1510  21.9074 15.09630730204611
R2                      
1 46913U 20081J   24211.93153249  .00007770  00000+0  47669-3 0  9995
2 46913  36.9022 289.7612 0009773 290.0734  69.8958 15.09691582207474
KSM1-B                  
1 46914U 20081K   24211.62210958  .00007531  00000+0  46721-3 0  9996
2 46914  36.9024 294.6334 0008090 292.3535  67.6352 15.09311322207675
GONETS-M 20             
1 47227U 20091A   24211.87904921  .00000056  00000+0  33387-3 0  9991
2 47227  82.5057   9.6368 0020180 239.3492 120.5598 12.42877220165698
GONETS-M 21             
1 47228U 20091B   24211.93230696  .00000054  00000+0  32003-3 0  9992
2 47228  82.4983   8.7371 0014126 252.9340 107.0193 12.42890646165694
GONETS-M 22             
1 47229U 20091C   24211.90651156  .00000089  00000+0  56889-3 0  9994
2 47229  82.5038   9.3313 0021262 232.9133 127.0003 12.42885475165648
HAISI 1                 
1 47297U 20102B   24211.91970218  .00183854  00000+0  10985-2 0  9994
2 47297  97.4242 324.8294 0004404 229.4481 130.6402 15.77342076200991
UVSQ-SAT                
1 47438U 21006AB  24211.88196494  .00072997  00000+0  11229-2 0  9994
2 47438  97.3216 273.1102 0004494  76.7759 283.3995 15.53972069195353
YUSAT-1                 
1 47439U 21006AC  24211.58410673  .05707188  24239-5  14545-2 0  9992
2 47439  97.2995 279.9050 0014630 263.9841  95.9786 16.28568863195775
SOMP2B                  
1 47445U 21006AJ  24211.72306486  .00058512  00000+0  10472-2 0  9995
2 47445  97.3184 270.9947 0005896  83.2497 276.9425 15.49774961195235
CUBEL                   
1 47448U 21006AM  24211.89519835  .00007358  00000+0  32220-3 0  9998
2 47448  97.3402 262.3988 0011881 107.0968 253.1571 15.22253727194512
FLOCK 4S-21             
1 47456U 21006AV  24211.93014771  .00287626  00000+0  21147-2 0  9994
2 47456  97.3233 279.1892 0005309 205.0007 155.1000 15.72228320195687
IDEASSAT                
1 47458U 21006AX  24211.91344003  .00047882  00000+0  96821-3 0  9998
2 47458  97.3298 271.5791 0006312  83.2917 276.9051 15.46298237195183
ASTROCAST-0103          
1 47487U 21006CC  24211.90691564  .00016734  00000+0  60471-3 0  9990
2 47487  97.3513 265.1582 0009561 119.2587 240.9610 15.28489490194672
ASTROCAST-0102          
1 47488U 21006CD  24211.89369272  .00023600  00000+0  74473-3 0  9994
2 47488  97.3399 264.9680 0008175  86.5339 273.6838 15.32823204194723
ASTROCAST-0104          
1 47519U 21006DK  24211.89225227  .00014074  00000+0  51162-3 0  9995
2 47519  97.3461 264.4760 0009020  95.8266 264.4003 15.28338401194664
FLOCK 4S-10             
1 47523U 21006DP  24211.75938619  .00210173  00000+0  20234-2 0  9994
2 47523  97.3244 277.4322 0005177 187.8671 172.2509 15.65861186195599
FLOCK 4S-7              
1 47527U 21006DT  24211.92647995  .00234621  00000+0  19694-2 0  9993
2 47527  97.3134 277.0047 0007088 204.6794 155.4130 15.69173889196581
HIBER-4                 
1 47541U 21006EB  24211.90616574  .00207413  00000+0  15008-2 0  9990
2 47541  97.3119 275.8341 0000708 147.7004 212.4303 15.72848181195567
ARKTIKA-M 1             
1 47719U 21016A   24211.12398946  .00000109  00000+0  00000+0 0  9998
2 47719  63.1357 146.9500 6956311 268.6261  17.8466  2.00602151 24984
STARLINK-2342           
1 47883U 21021Z   24211.86674838  .00010267  00000+0  70703-3 0  9991
2 47883  53.0567  35.4556 0001368  96.4621 263.6523 15.06406643187695
GRUS-1B                 
1 47934U 21022C   24211.91963503  .00003289  00000+0  29296-3 0  9992
2 47934  97.6219 103.8586 0019676 107.6850 252.6522 14.96564257183005
2021-022F               
1 47937U 21022F   24211.91121256  .00007673  00000+0  39207-3 0  9990
2 47937  97.4563 106.9221 0013364   3.7371 356.3960 15.16880589184922
CANYVAL-C (PUMBAA)      
1 47938U 21022G   24211.90691205  .00023386  00000+0  85052-3 0  9994
2 47938  97.4517 110.1298 0012215 358.8965   1.2246 15.28183984185168
2021-022H               
1 47939U 21022H   24211.91842459  .00048752  00000+0  11596-2 0  9990
2 47939  97.4580 116.7307 0005515 329.0495  31.0426 15.41474463185548
WILDTRACKCUBE-SIMBA     
1 47941U 21022K   24211.90394319  .00015116  00000+0  64628-3 0  9992
2 47941  97.4551 108.3186 0014667   4.4366 355.6998 15.22839958184967
HIBER-3                 
1 47942U 21022L   24211.61240556  .00035690  00000+0  10532-2 0  9997
2 47942  97.4515 112.6043 0009294 351.3510   8.7572 15.34859644185257
2021-022M               
1 47943U 21022M   24211.90761222  .00048949  00000+0  11721-2 0  9990
2 47943  97.4567 116.8238 0005676 326.5806  33.5081 15.41270005185414
